OBJECT_NAME,OBJECT_ID,EPOCH,MEAN_MOTION,ECCENTRICITY,INCLINATION,RA_OF_ASC_NODE,ARG_OF_PERICENTER,MEAN_ANOMALY,EPHEMERIS_TYPE,CLASSIFICATION_TYPE,NORAD_CAT_ID,ELEMENT_SET_NO,REV_AT_EPOCH,BSTAR,MEAN_MOTION_DOT,MEAN_MOTION_DDOT
ONEWEB-0531,2022-138AK,2026-07-16T04:07:49.802016,13.20773042,.0002531,87.9187,268.6593,79.9785,280.1634,0,U,54146,999,18313,.43286E-4,.31E-6,0
ONEWEB-0535,2022-138AL,2026-07-15T19:31:56.400672,13.19726499,.00019393,87.9195,299.2601,92.4854,267.6501,0,U,54147,999,18061,-.89763439E-4,-.23E-6,0
ONEWEB-0536,2022-138AM,2026-07-16T03:48:26.433792,13.20772737,.000276,87.9174,268.6810,79.3655,280.7789,0,U,54148,999,18312,.17382E-3,.84E-6,0
ONEWEB-0527,2022-166A,2026-07-16T02:13:26.484096,13.21827471,.0002103,87.9232,238.2440,97.8709,262.2664,0,U,54642,999,17535,.81012E-4,.46E-6,0
ONEWEB-0528,2022-166B,2026-07-16T02:14:39.314112,13.21826406,.00022,87.9235,238.2464,101.8429,258.2952,0,U,54643,999,17536,.12906E-3,.66E-6,0
ONEWEB-0539,2022-166C,2026-07-16T03:09:08.714304,13.21824084,.0001879,87.9238,238.2124,96.0940,264.0408,0,U,54644,999,17536,.19503E-3,.94E-6,0
ONEWEB-0540,2022-166D,2026-07-16T01:30:02.152224,13.21824878,.0002025,87.9233,238.2548,94.6889,265.4477,0,U,54645,999,17534,.17759E-3,.86E-6,0
ONEWEB-0542,2022-166E,2026-07-16T01:34:41.797056,13.21826096,.0001777,87.9242,238.2248,95.5138,264.6198,0,U,54646,999,17535,-.13181E-3,-.41E-6,0
ONEWEB-0545,2022-166F,2026-07-16T02:32:49.905024,13.21826025,.0001524,87.9234,238.2262,89.7457,270.3852,0,U,54647,999,17532,.1108E-3,.59E-6,0
ONEWEB-0580,2022-166G,2026-07-16T03:45:28.334016,13.21823827,.0001777,87.9230,238.2160,87.1022,273.0315,0,U,54648,999,17537,.12012E-3,.63E-6,0
ONEWEB-0582,2022-166H,2026-07-16T02:57:01.090656,13.21823823,.0001672,87.9236,238.2152,91.9734,268.1592,0,U,54649,999,17534,.53855E-3,.235E-5,0
ONEWEB-0583,2022-166J,2026-07-16T03:14:00.676320,13.21826068,.000197,87.9233,238.2362,94.6367,265.4992,0,U,54650,999,17535,.17308E-3,.84E-6,0
ONEWEB-0584,2022-166K,2026-07-16T03:43:03.739296,13.21825490,.0002042,87.9227,238.2173,95.1695,264.9672,0,U,54651,999,17534,.20033E-3,.96E-6,0
ONEWEB-0585,2022-166L,2026-07-16T02:27:57.428064,13.21823905,.0002244,87.9235,238.2154,98.2095,261.9293,0,U,54652,999,17534,.17676E-3,.86E-6,0
ONEWEB-0586,2022-166M,2026-07-16T02:47:20.599296,13.21823989,.0001879,87.9233,238.2378,96.4283,263.7065,0,U,54653,999,17534,.87008E-4,.49E-6,0
ONEWEB-0587,2022-166N,2026-07-16T03:01:54.181056,13.21826033,.000243,87.9244,238.2122,98.2038,261.9372,0,U,54654,999,17550,.17306E-3,.84E-6,0
ONEWEB-0589,2022-166P,2026-07-16T02:42:31.303584,13.21825897,.0001386,87.9232,238.2234,78.1019,282.0270,0,U,54655,999,17536,.11014E-3,.58E-6,0
ONEWEB-0590,2022-166Q,2026-07-16T03:18:38.098944,13.21825882,.0002272,87.9240,238.2116,84.2806,275.8587,0,U,54656,999,17535,.74179E-4,.44E-6,0
ONEWEB-0591,2022-166R,2026-07-16T03:35:46.487040,13.21825266,.0002076,87.9232,238.2215,93.3210,266.8162,0,U,54657,999,17538,-.55635E-3,-.217E-5,0
ONEWEB-0592,2022-166S,2026-07-16T03:40:38.277120,13.21823940,.0002049,87.9239,238.2016,96.2314,263.9053,0,U,54658,999,17526,.14698E-3,.74E-6,0
ONEWEB-0593,2022-166T,2026-07-16T02:23:07.920672,13.21825948,.0001923,87.9235,238.2218,97.9926,262.1426,0,U,54659,999,17536,-.69542E-4,-.16E-6,0
ONEWEB-0594,2022-166U,2026-07-16T02:52:11.669664,13.21824852,.0002209,87.9233,238.2334,100.0454,260.0930,0,U,54660,999,17538,.21652E-3,.102E-5,0
ONEWEB-0595,2022-166V,2026-07-16T02:18:17.805024,13.21825697,.0002324,87.9241,238.2214,96.4984,263.6414,0,U,54661,999,17535,.12796E-3,.66E-6,0
ONEWEB-0596,2022-166W,2026-07-16T03:30:56.647872,13.21824216,.0002155,87.9233,238.2211,95.3608,264.7771,0,U,54662,999,17536,.16276E-3,.8E-6,0
ONEWEB-0597,2022-166X,2026-07-16T03:04:18.005952,13.21824599,.0001997,87.9233,238.2274,94.7715,265.3647,0,U,54663,999,17536,.20349E-3,.97E-6,0
ONEWEB-0600,2022-166Y,2026-07-16T02:37:40.718784,13.21825843,.0001983,87.9236,238.2222,101.7452,258.3905,0,U,54664,999,17533,-.46236E-4,-.6E-7,0
ONEWEB-0601,2022-166Z,2026-07-16T02:25:33.214368,13.21824951,.0001813,87.9233,238.2398,94.8142,265.3198,0,U,54665,999,17552,-.10357E-3,-.3E-6,0
ONEWEB-0602,2022-166AA,2026-07-16T03:24:53.348832,13.21823877,.0001952,87.9231,238.2376,101.8189,258.3164,0,U,54666,999,17537,.14236E-3,.72E-6,0
ONEWEB-0603,2022-166AB,2026-07-16T03:33:21.704832,13.21824206,.0001995,87.9242,238.1965,96.4532,263.6829,0,U,54667,999,17530,.19711E-3,.94E-6,0
ONEWEB-0604,2022-166AC,2026-07-16T03:16:24.352608,13.21824189,.0002129,87.9242,238.2145,97.0064,263.1312,0,U,54668,999,17526,.2536E-3,.118E-5,0
ONEWEB-0605,2022-166AD,2026-07-16T03:06:42.217056,13.21833898,.0001991,87.9233,238.2267,81.9417,278.1943,0,U,54669,999,17533,.32939E-2,.1374E-4,0
