ONEWEB-0531             
1 54146U 22138AK  26197.17210419  .00000031  00000+0  43286-4 0  9996
2 54146  87.9187 268.6593 0002531  79.9785 280.1634 13.20773042183136
ONEWEB-0535             
1 54147U 22138AL  26196.81384723 -.00000023  00000+0 -89763-4 0  9990
2 54147  87.9195 299.2601 0001939  92.4854 267.6501 13.19726499180619
ONEWEB-0536             
1 54148U 22138AM  26197.15863928  .00000084  00000+0  17382-3 0  9990
2 54148  87.9174 268.6810 0002760  79.3655 280.7789 13.20772737183126
ONEWEB-0527             
1 54642U 22166A   26197.09266764  .00000046  00000+0  81012-4 0  9998
2 54642  87.9232 238.2440 0002103  97.8709 262.2664 13.21827471175358
ONEWEB-0528             
1 54643U 22166B   26197.09351058  .00000066  00000+0  12906-3 0  9997
2 54643  87.9235 238.2464 0002200 101.8429 258.2952 13.21826406175364
ONEWEB-0539             
1 54644U 22166C   26197.13135086  .00000094  00000+0  19503-3 0  9995
2 54644  87.9238 238.2124 0001879  96.0940 264.0408 13.21824084175366
ONEWEB-0540             
1 54645U 22166D   26197.06252491  .00000086  00000+0  17759-3 0  9990
2 54645  87.9233 238.2548 0002025  94.6889 265.4477 13.21824878175342
ONEWEB-0542             
1 54646U 22166E   26197.06576154 -.00000041  00000+0 -13181-3 0  9994
2 54646  87.9242 238.2248 0001777  95.5138 264.6198 13.21826096175356
ONEWEB-0545             
1 54647U 22166F   26197.10613316  .00000059  00000+0  11080-3 0  9995
2 54647  87.9234 238.2262 0001524  89.7457 270.3852 13.21826025175323
ONEWEB-0580             
1 54648U 22166G   26197.15657794  .00000063  00000+0  12012-3 0  9990
2 54648  87.9230 238.2160 0001777  87.1022 273.0315 13.21823827175373
ONEWEB-0582             
1 54649U 22166H   26197.12292929  .00000235  00000+0  53855-3 0  9994
2 54649  87.9236 238.2152 0001672  91.9734 268.1592 13.21823823175343
ONEWEB-0583             
1 54650U 22166J   26197.13473005  .00000084  00000+0  17308-3 0  9998
2 54650  87.9233 238.2362 0001970  94.6367 265.4992 13.21826068175357
ONEWEB-0584             
1 54651U 22166K   26197.15490439  .00000096  00000+0  20033-3 0  9993
2 54651  87.9227 238.2173 0002042  95.1695 264.9672 13.21825490175348
ONEWEB-0585             
1 54652U 22166L   26197.10274801  .00000086  00000+0  17676-3 0  9990
2 54652  87.9235 238.2154 0002244  98.2095 261.9293 13.21823905175344
ONEWEB-0586             
1 54653U 22166M   26197.11621064  .00000049  00000+0  87008-4 0  9995
2 54653  87.9233 238.2378 0001879  96.4283 263.7065 13.21823989175342
ONEWEB-0587             
1 54654U 22166N   26197.12632154  .00000084  00000+0  17306-3 0  9991
2 54654  87.9244 238.2122 0002430  98.2038 261.9372 13.21826033175506
ONEWEB-0589             
1 54655U 22166P   26197.11286231  .00000058  00000+0  11014-3 0  9993
2 54655  87.9232 238.2234 0001386  78.1019 282.0270 13.21825897175365
ONEWEB-0590             
1 54656U 22166Q   26197.13794096  .00000044  00000+0  74179-4 0  9996
2 54656  87.9240 238.2116 0002272  84.2806 275.8587 13.21825882175355
ONEWEB-0591             
1 54657U 22166R   26197.14984360 -.00000217  00000+0 -55635-3 0  9992
2 54657  87.9232 238.2215 0002076  93.3210 266.8162 13.21825266175387
ONEWEB-0592             
1 54658U 22166S   26197.15322080  .00000074  00000+0  14698-3 0  9992
2 54658  87.9239 238.2016 0002049  96.2314 263.9053 13.21823940175262
ONEWEB-0593             
1 54659U 22166T   26197.09939723 -.00000016  00000+0 -69542-4 0  9991
2 54659  87.9235 238.2218 0001923  97.9926 262.1426 13.21825948175366
ONEWEB-0594             
1 54660U 22166U   26197.11957951  .00000102  00000+0  21652-3 0  9992
2 54660  87.9233 238.2334 0002209 100.0454 260.0930 13.21824852175387
ONEWEB-0595             
1 54661U 22166V   26197.09603941  .00000066  00000+0  12796-3 0  9995
2 54661  87.9241 238.2214 0002324  96.4984 263.6414 13.21825697175359
ONEWEB-0596             
1 54662U 22166W   26197.14648898  .00000080  00000+0  16276-3 0  9995
2 54662  87.9233 238.2211 0002155  95.3608 264.7771 13.21824216175366
ONEWEB-0597             
1 54663U 22166X   26197.12798618  .00000097  00000+0  20349-3 0  9994
2 54663  87.9233 238.2274 0001997  94.7715 265.3647 13.21824599175364
ONEWEB-0600             
1 54664U 22166Y   26197.10949906 -.00000006  00000+0 -46236-4 0  9997
2 54664  87.9236 238.2222 0001983 101.7452 258.3905 13.21825843175332
ONEWEB-0601             
1 54665U 22166Z   26197.10107887 -.00000030  00000+0 -10357-3 0  9993
2 54665  87.9233 238.2398 0001813  94.8142 265.3198 13.21824951175526
ONEWEB-0602             
1 54666U 22166AA  26197.14228413  .00000072  00000+0  14236-3 0  9991
2 54666  87.9231 238.2376 0001952 101.8189 258.3164 13.21823877175379
ONEWEB-0603             
1 54667U 22166AB  26197.14816788  .00000094  00000+0  19711-3 0  9997
2 54667  87.9242 238.1965 0001995  96.4532 263.6829 13.21824206175300
ONEWEB-0604             
1 54668U 22166AC  26197.13639297  .00000118  00000+0  25360-3 0  9999
2 54668  87.9242 238.2145 0002129  97.0064 263.1312 13.21824189175266
ONEWEB-0605             
1 54669U 22166AD  26197.12965529  .00001374  00000+0  32939-2 0  9993
2 54669  87.9233 238.2267 0001991  81.9417 278.1943 13.21833898175333
